[{"OBJECT_NAME":"STARLINK-2298","OBJECT_ID":"2021-024AX","EPOCH":"2026-03-10T00:00:02.999808","MEAN_MOTION":15.15852398,"ECCENTRICITY":0.00022088,"INCLINATION":53.0935,"RA_OF_ASC_NODE":330.2189,"ARG_OF_PERICENTER":83.1069,"MEAN_ANOMALY":79.3652,"EPHEMERIS_TYPE":0,"CLASSIFICATION_TYPE":"U","NORAD_CAT_ID":48022,"ELEMENT_SET_NO":999,"REV_AT_EPOCH":575,"BSTAR":0.0020729399,"MEAN_MOTION_DOT":0.00040038,"MEAN_MOTION_DDOT":0},{"OBJECT_NAME":"SITRO-AIS-59","OBJECT_ID":"2025-313K","EPOCH":"2026-03-09T21:18:35.055936","MEAN_MOTION":15.21259923,"ECCENTRICITY":0.00156259,"INCLINATION":97.4001,"RA_OF_ASC_NODE":145.102,"ARG_OF_PERICENTER":358.3568,"MEAN_ANOMALY":1.7614,"EPHEMERIS_TYPE":0,"CLASSIFICATION_TYPE":"U","NORAD_CAT_ID":67257,"ELEMENT_SET_NO":999,"REV_AT_EPOCH":1084,"BSTAR":0.00052056429,"MEAN_MOTION_DOT":0.00011608,"MEAN_MOTION_DDOT":0}]
